[{"OBJECT_NAME":"INMARSAT 4-F2 (SOUTHPAN/PRN 122)","OBJECT_ID":"2005-044A","EPOCH":"2026-03-02T21:03:51.751584","MEAN_MOTION":1.00272126,"ECCENTRICITY":0.0002528,"INCLINATION":4.9558,"RA_OF_ASC_NODE":43.8064,"ARG_OF_PERICENTER":316.2156,"MEAN_ANOMALY":260.0874,"EPHEMERIS_TYPE":0,"CLASSIFICATION_TYPE":"U","NORAD_CAT_ID":28899,"ELEMENT_SET_NO":999,"REV_AT_EPOCH":7445,"BSTAR":0,"MEAN_MOTION_DOT":-2.74e-6,"MEAN_MOTION_DDOT":0},{"OBJECT_NAME":"GSAT-8 (GAGAN/PRN 127)","OBJECT_ID":"2011-022A","EPOCH":"2026-03-03T02:31:38.663040","MEAN_MOTION":1.00271684,"ECCENTRICITY":0.0007464,"INCLINATION":1.8569,"RA_OF_ASC_NODE":83.175,"ARG_OF_PERICENTER":214.2646,"MEAN_ANOMALY":316.387,"EPHEMERIS_TYPE":0,"CLASSIFICATION_TYPE":"U","NORAD_CAT_ID":37605,"ELEMENT_SET_NO":999,"REV_AT_EPOCH":5215,"BSTAR":0,"MEAN_MOTION_DOT":7.0e-7,"MEAN_MOTION_DDOT":0},{"OBJECT_NAME":"LUCH 5A (SDCM/PRN 140)","OBJECT_ID":"2011-074B","EPOCH":"2026-03-03T06:32:48.286176","MEAN_MOTION":1.00275234,"ECCENTRICITY":0.0004037,"INCLINATION":8.4844,"RA_OF_ASC_NODE":75.3629,"ARG_OF_PERICENTER":243.0845,"MEAN_ANOMALY":107.8689,"EPHEMERIS_TYPE":0,"CLASSIFICATION_TYPE":"U","NORAD_CAT_ID":37951,"ELEMENT_SET_NO":999,"REV_AT_EPOCH":5198,"BSTAR":0,"MEAN_MOTION_DOT":-5.9e-7,"MEAN_MOTION_DDOT":0},{"OBJECT_NAME":"SES-5 (EGNOS/PRN 136)","OBJECT_ID":"2012-036A","EPOCH":"2026-03-03T03:49:48.888768","MEAN_MOTION":1.00271204,"ECCENTRICITY":0.0002013,"INCLINATION":0.0623,"RA_OF_ASC_NODE":308.3085,"ARG_OF_PERICENTER":28.3836,"MEAN_ANOMALY":246.6545,"EPHEMERIS_TYPE":0,"CLASSIFICATION_TYPE":"U","NORAD_CAT_ID":38652,"ELEMENT_SET_NO":999,"REV_AT_EPOCH":4339,"BSTAR":0,"MEAN_MOTION_DOT":1.8e-7,"MEAN_MOTION_DDOT":0},{"OBJECT_NAME":"GSAT-10 (GAGAN/PRN 128)","OBJECT_ID":"2012-051B","EPOCH":"2026-03-03T02:29:26.592864","MEAN_MOTION":1.00273317,"ECCENTRICITY":0.0004117,"INCLINATION":0.0767,"RA_OF_ASC_NODE":264.0553,"ARG_OF_PERICENTER":175.5447,"MEAN_ANOMALY":201.5847,"EPHEMERIS_TYPE":0,"CLASSIFICATION_TYPE":"U","NORAD_CAT_ID":38779,"ELEMENT_SET_NO":999,"REV_AT_EPOCH":4903,"BSTAR":0,"MEAN_MOTION_DOT":-1.8e-6,"MEAN_MOTION_DDOT":0},{"OBJECT_NAME":"LUCH 5B (SDCM/PRN 125)","OBJECT_ID":"2012-061A","EPOCH":"2026-03-02T17:27:37.259712","MEAN_MOTION":1.00271515,"ECCENTRICITY":0.00044704,"INCLINATION":10.2549,"RA_OF_ASC_NODE":50.9204,"ARG_OF_PERICENTER":222.087,"MEAN_ANOMALY":133.0852,"EPHEMERIS_TYPE":0,"CLASSIFICATION_TYPE":"U","NORAD_CAT_ID":38977,"ELEMENT_SET_NO":999,"REV_AT_EPOCH":4853,"BSTAR":0,"MEAN_MOTION_DOT":-1.49e-6,"MEAN_MOTION_DDOT":0},{"OBJECT_NAME":"ASTRA 5B (EGNOS/PRN 123)","OBJECT_ID":"2014-011B","EPOCH":"2026-03-03T03:13:38.772192","MEAN_MOTION":1.00270217,"ECCENTRICITY":0.0004207,"INCLINATION":0.0936,"RA_OF_ASC_NODE":297.5206,"ARG_OF_PERICENTER":25.9413,"MEAN_ANOMALY":269.3272,"EPHEMERIS_TYPE":0,"CLASSIFICATION_TYPE":"U","NORAD_CAT_ID":39617,"ELEMENT_SET_NO":999,"REV_AT_EPOCH":4360,"BSTAR":0,"MEAN_MOTION_DOT":1.21e-6,"MEAN_MOTION_DDOT":0},{"OBJECT_NAME":"LUCH 5V (SDCM/PRN 141)","OBJECT_ID":"2014-023A","EPOCH":"2026-03-03T02:32:41.282304","MEAN_MOTION":1.00272065,"ECCENTRICITY":0.0002951,"INCLINATION":4.8715,"RA_OF_ASC_NODE":70.7857,"ARG_OF_PERICENTER":275.9339,"MEAN_ANOMALY":307.0543,"EPHEMERIS_TYPE":0,"CLASSIFICATION_TYPE":"U","NORAD_CAT_ID":39727,"ELEMENT_SET_NO":999,"REV_AT_EPOCH":4329,"BSTAR":0,"MEAN_MOTION_DOT":-2.82e-6,"MEAN_MOTION_DDOT":0},{"OBJECT_NAME":"GSAT-15 (GAGAN/PRN 139)","OBJECT_ID":"2015-065A","EPOCH":"2026-03-03T00:49:46.289856","MEAN_MOTION":1.00269319,"ECCENTRICITY":7.58e-5,"INCLINATION":0.0929,"RA_OF_ASC_NODE":270.0634,"ARG_OF_PERICENTER":84.6439,"MEAN_ANOMALY":272.015,"EPHEMERIS_TYPE":0,"CLASSIFICATION_TYPE":"U","NORAD_CAT_ID":41028,"ELEMENT_SET_NO":999,"REV_AT_EPOCH":3773,"BSTAR":0,"MEAN_MOTION_DOT":-2.73e-6,"MEAN_MOTION_DDOT":0},{"OBJECT_NAME":"EUTELSAT 117 WEST B (WAAS/PRN 131)","OBJECT_ID":"2016-038B","EPOCH":"2026-03-03T03:49:38.807616","MEAN_MOTION":1.0027134,"ECCENTRICITY":8.6e-6,"INCLINATION":0.0363,"RA_OF_ASC_NODE":3.058,"ARG_OF_PERICENTER":185.7502,"MEAN_ANOMALY":272.5261,"EPHEMERIS_TYPE":0,"CLASSIFICATION_TYPE":"U","NORAD_CAT_ID":41589,"ELEMENT_SET_NO":999,"REV_AT_EPOCH":3560,"BSTAR":0,"MEAN_MOTION_DOT":-2.7e-7,"MEAN_MOTION_DDOT":0},{"OBJECT_NAME":"SES-15 (WAAS/PRN 133)","OBJECT_ID":"2017-026A","EPOCH":"2026-03-02T23:46:14.878272","MEAN_MOTION":1.00271248,"ECCENTRICITY":7.1e-5,"INCLINATION":0.0287,"RA_OF_ASC_NODE":284.1567,"ARG_OF_PERICENTER":54.3232,"MEAN_ANOMALY":49.6551,"EPHEMERIS_TYPE":0,"CLASSIFICATION_TYPE":"U","NORAD_CAT_ID":42709,"ELEMENT_SET_NO":999,"REV_AT_EPOCH":636,"BSTAR":0,"MEAN_MOTION_DOT":4.4e-7,"MEAN_MOTION_DDOT":0},{"OBJECT_NAME":"QZS-2 (QZSS/PRN 194)","OBJECT_ID":"2017-028A","EPOCH":"2026-03-02T19:52:38.716032","MEAN_MOTION":1.0026242,"ECCENTRICITY":0.07458935,"INCLINATION":39.5927,"RA_OF_ASC_NODE":244.7025,"ARG_OF_PERICENTER":270.3157,"MEAN_ANOMALY":85.4192,"EPHEMERIS_TYPE":0,"CLASSIFICATION_TYPE":"U","NORAD_CAT_ID":42738,"ELEMENT_SET_NO":999,"REV_AT_EPOCH":656,"BSTAR":0,"MEAN_MOTION_DOT":-1.75e-6,"MEAN_MOTION_DDOT":0},{"OBJECT_NAME":"QZS-3 (QZSS/PRN 199)","OBJECT_ID":"2017-048A","EPOCH":"2026-03-03T00:59:15.379872","MEAN_MOTION":1.00282555,"ECCENTRICITY":0.000236,"INCLINATION":0.0752,"RA_OF_ASC_NODE":219.2442,"ARG_OF_PERICENTER":139.558,"MEAN_ANOMALY":303.7727,"EPHEMERIS_TYPE":0,"CLASSIFICATION_TYPE":"U","NORAD_CAT_ID":42917,"ELEMENT_SET_NO":999,"REV_AT_EPOCH":3119,"BSTAR":0,"MEAN_MOTION_DOT":-3.63e-6,"MEAN_MOTION_DDOT":0},{"OBJECT_NAME":"QZS-4 (QZSS/PRN 195)","OBJECT_ID":"2017-062A","EPOCH":"2026-03-01T21:29:36.502368","MEAN_MOTION":1.00281156,"ECCENTRICITY":0.074901,"INCLINATION":40.1745,"RA_OF_ASC_NODE":344.8554,"ARG_OF_PERICENTER":269.8374,"MEAN_ANOMALY":7.7874,"EPHEMERIS_TYPE":0,"CLASSIFICATION_TYPE":"U","NORAD_CAT_ID":42965,"ELEMENT_SET_NO":999,"REV_AT_EPOCH":3072,"BSTAR":0,"MEAN_MOTION_DOT":-3.39e-6,"MEAN_MOTION_DDOT":0},{"OBJECT_NAME":"BEIDOU-3 G1 (PRN 130)","OBJECT_ID":"2018-085A","EPOCH":"2026-03-03T04:28:22.692864","MEAN_MOTION":1.00268855,"ECCENTRICITY":0.0001302,"INCLINATION":2.8074,"RA_OF_ASC_NODE":100.4198,"ARG_OF_PERICENTER":28.4096,"MEAN_ANOMALY":239.2628,"EPHEMERIS_TYPE":0,"CLASSIFICATION_TYPE":"U","NORAD_CAT_ID":43683,"ELEMENT_SET_NO":999,"REV_AT_EPOCH":2699,"BSTAR":0,"MEAN_MOTION_DOT":-2.93e-6,"MEAN_MOTION_DDOT":0},{"OBJECT_NAME":"EUTELSAT 5 WEST B (EGNOS/PRN 121)","OBJECT_ID":"2019-067A","EPOCH":"2026-03-03T03:46:56.664192","MEAN_MOTION":1.00272363,"ECCENTRICITY":0.0003195,"INCLINATION":0.0972,"RA_OF_ASC_NODE":308.8856,"ARG_OF_PERICENTER":40.8397,"MEAN_ANOMALY":222.8955,"EPHEMERIS_TYPE":0,"CLASSIFICATION_TYPE":"U","NORAD_CAT_ID":44624,"ELEMENT_SET_NO":999,"REV_AT_EPOCH":2337,"BSTAR":0,"MEAN_MOTION_DOT":-5.8e-7,"MEAN_MOTION_DDOT":0},{"OBJECT_NAME":"BEIDOU-3 G2 (PRN 144)","OBJECT_ID":"2020-017A","EPOCH":"2026-03-03T04:11:16.831968","MEAN_MOTION":1.00271086,"ECCENTRICITY":0.0002707,"INCLINATION":2.6517,"RA_OF_ASC_NODE":45.5494,"ARG_OF_PERICENTER":301.6317,"MEAN_ANOMALY":316.6058,"EPHEMERIS_TYPE":0,"CLASSIFICATION_TYPE":"U","NORAD_CAT_ID":45344,"ELEMENT_SET_NO":999,"REV_AT_EPOCH":2219,"BSTAR":0,"MEAN_MOTION_DOT":-1.54e-6,"MEAN_MOTION_DDOT":0}]
