INMARSAT 4-F2           
1 28899U 05044A   26061.87768231 -.00000274  00000+0  00000+0 0  9998
2 28899   4.9558  43.8064 0002528 316.2156 260.0874  1.00272126 74453
GSAT-8                  
1 37605U 11022A   26062.10530860  .00000070  00000+0  00000+0 0  9991
2 37605   1.8569  83.1750 0007464 214.2646 316.3870  1.00271684 52152
LUCH-5A                 
1 37951U 11074B   26062.27278109 -.00000059  00000+0  00000+0 0  9993
2 37951   8.4844  75.3629 0004037 243.0845 107.8689  1.00275234 51983
SES-5                   
1 38652U 12036A   26062.15959362  .00000018  00000+0  00000+0 0  9999
2 38652   0.0623 308.3085 0002013  28.3836 246.6545  1.00271204 43398
GSAT-10                 
1 38779U 12051B   26062.10378001 -.00000180  00000+0  00000+0 0  9997
2 38779   0.0767 264.0553 0004117 175.5447 201.5847  1.00273317 49034
LUCH-5B                 
1 38977U 12061A   26061.72751458 -.00000149  00000+0  00000+0 0  9991
2 38977  10.2549  50.9204 0004470 222.0870 133.0852  1.00271515 48537
ASTRA 5B                
1 39617U 14011B   26062.13447653  .00000121  00000+0  00000+0 0  9994
2 39617   0.0936 297.5206 0004207  25.9413 269.3272  1.00270217 43608
LUCH-5V                 
1 39727U 14023A   26062.10603336 -.00000282  00000+0  00000+0 0  9997
2 39727   4.8715  70.7857 0002951 275.9339 307.0543  1.00272065 43297
GSAT-15                 
1 41028U 15065A   26062.03456354 -.00000273  00000+0  00000+0 0  9999
2 41028   0.0929 270.0634 0000758  84.6439 272.0150  1.00269319 37731
EUTELSAT 117 WEST B     
1 41589U 16038B   26062.15947694 -.00000027  00000+0  00000+0 0  9994
2 41589   0.0363   3.0580 0000086 185.7502 272.5261  1.00271340 35606
SES-15                  
1 42709U 17026A   26061.99044998  .00000044  00000+0  00000+0 0  9991
2 42709   0.0287 284.1567 0000710  54.3232  49.6551  1.00271248  6361
QZS-2 (MICHIBIKI-2)     
1 42738U 17028A   26061.82822588 -.00000175  00000+0  00000+0 0  9992
2 42738  39.5927 244.7025 0745893 270.3157  85.4192  1.00262420  6569
QZS-3 (MICHIBIKI-3)     
1 42917U 17048A   26062.04115023 -.00000363  00000+0  00000+0 0  9996
2 42917   0.0752 219.2442 0002360 139.5580 303.7727  1.00282555 31196
QZS-4 (MICHIBIKI-4)     
1 42965U 17062A   26060.89556137 -.00000339  00000+0  00000+0 0  9994
2 42965  40.1745 344.8554 0749010 269.8374   7.7874  1.00281156 30721
BEIDOU-3 G1             
1 43683U 18085A   26062.18637376 -.00000293  00000+0  00000+0 0  9996
2 43683   2.8074 100.4198 0001302  28.4096 239.2628  1.00268855 26998
EUTELSAT 5 WEST B       
1 44624U 19067A   26062.15760028 -.00000058  00000+0  00000+0 0  9990
2 44624   0.0972 308.8856 0003195  40.8397 222.8955  1.00272363 23379
BEIDOU-3 G2             
1 45344U 20017A   26062.17450037 -.00000154  00000+0  00000+0 0  9992
2 45344   2.6517  45.5494 0002707 301.6317 316.6058  1.00271086 22199
